{
  "type": "FeatureCollection",
  "features": [
    {
      "type": "Feature",
      "properties": {
        "norad_id": 2807,
        "name": "OPS 7218 (TRANSIT 16)",
        "group": "nnss",
        "lat": 26.79664094868237,
        "lon": -5.472382889788972,
        "alt_km": 1075.3630201480019,
        "timestamp": "2025-12-02T07:10:09.383742+00:00",
        "meta_object_name": "OPS 7218 (TRANSIT 16)",
        "meta_object_id": "1967-048A",
        "meta_epoch": "2025-12-01T19:26:47.854176",
        "meta_mean_motion": 13.50718957,
        "meta_eccentricity": 0.0021367,
        "meta_inclination": 89.6737,
        "meta_ra_of_asc_node": 354.3788,
        "meta_arg_of_pericenter": 143.5784,
        "meta_mean_anomaly": 29.8514,
        "meta_ephemeris_type": 0,
        "meta_classification_type": "U",
        "meta_norad_cat_id": 2807,
        "meta_element_set_no": 999,
        "meta_rev_at_epoch": 88128,
        "meta_bstar": 0.00019892,
        "meta_mean_motion_dot": 1.38e-06,
        "meta_mean_motion_ddot": 0,
        "tle_line1": "1 02807U 67048A   25335.81027609  .00000138  00000+0  19892-3 0  9996",
        "tle_line2": "2 02807  89.6737 354.3788 0021367 143.5784  29.8514 13.50718957881280"
      },
      "geometry": {
        "type": "Point",
        "coordinates": [
          -5.472382889788972,
          26.79664094868237
        ]
      }
    },
    {
      "type": "Feature",
      "properties": {
        "norad_id": 2965,
        "name": "OPS 4947 (TRANSIT 17)",
        "group": "nnss",
        "lat": -10.513710945785654,
        "lon": 25.09234788721723,
        "alt_km": 1059.8884771998019,
        "timestamp": "2025-12-02T07:10:09.383765+00:00",
        "meta_object_name": "OPS 4947 (TRANSIT 17)",
        "meta_object_id": "1967-092A",
        "meta_epoch": "2025-12-01T17:36:36.940896",
        "meta_mean_motion": 13.5344936,
        "meta_eccentricity": 0.004573,
        "meta_inclination": 89.2508,
        "meta_ra_of_asc_node": 25.2744,
        "meta_arg_of_pericenter": 267.6148,
        "meta_mean_anomaly": 210.3913,
        "meta_ephemeris_type": 0,
        "meta_classification_type": "U",
        "meta_norad_cat_id": 2965,
        "meta_element_set_no": 999,
        "meta_rev_at_epoch": 86948,
        "meta_bstar": 0.00018936,
        "meta_mean_motion_dot": 1.39e-06,
        "meta_mean_motion_ddot": 0,
        "tle_line1": "1 02965U 67092A   25335.73376089  .00000139  00000+0  18936-3 0  9999",
        "tle_line2": "2 02965  89.2508  25.2744 0045730 267.6148 210.3913 13.53449360869485"
      },
      "geometry": {
        "type": "Point",
        "coordinates": [
          25.09234788721723,
          -10.513710945785654
        ]
      }
    },
    {
      "type": "Feature",
      "properties": {
        "norad_id": 3133,
        "name": "OPS 7034 (TRANSIT 18)",
        "group": "nnss",
        "lat": -29.396713200932016,
        "lon": 93.5948334919525,
        "alt_km": 1018.9644296510651,
        "timestamp": "2025-12-02T07:10:09.383779+00:00",
        "meta_object_name": "OPS 7034 (TRANSIT 18)",
        "meta_object_id": "1968-012A",
        "meta_epoch": "2025-12-01T19:44:27.919104",
        "meta_mean_motion": 13.51561913,
        "meta_eccentricity": 0.0072844,
        "meta_inclination": 90.0267,
        "meta_ra_of_asc_node": 273.6086,
        "meta_arg_of_pericenter": 200.9332,
        "meta_mean_anomaly": 212.7128,
        "meta_ephemeris_type": 0,
        "meta_classification_type": "U",
        "meta_norad_cat_id": 3133,
        "meta_element_set_no": 999,
        "meta_rev_at_epoch": 56771,
        "meta_bstar": 0.00012582,
        "meta_mean_motion_dot": 9.3e-07,
        "meta_mean_motion_ddot": 0,
        "tle_line1": "1 03133U 68012A   25335.82254536  .00000093  00000+0  12582-3 0  9992",
        "tle_line2": "2 03133  90.0267 273.6086 0072844 200.9332 212.7128 13.51561913567716"
      },
      "geometry": {
        "type": "Point",
        "coordinates": [
          93.5948334919525,
          -29.396713200932016
        ]
      }
    },
    {
      "type": "Feature",
      "properties": {
        "norad_id": 4507,
        "name": "NNSS 19 (TRANSIT 19)",
        "group": "nnss",
        "lat": -8.765781509710589,
        "lon": 54.525451637889724,
        "alt_km": 1160.892943589578,
        "timestamp": "2025-12-02T07:10:09.383792+00:00",
        "meta_object_name": "NNSS 19 (TRANSIT 19)",
        "meta_object_id": "1970-067A",
        "meta_epoch": "2025-12-01T17:47:11.230944",
        "meta_mean_motion": 13.51310415,
        "meta_eccentricity": 0.0171317,
        "meta_inclination": 90.0056,
        "meta_ra_of_asc_node": 234.526,
        "meta_arg_of_pericenter": 325.4641,
        "meta_mean_anomaly": 33.5474,
        "meta_ephemeris_type": 0,
        "meta_classification_type": "U",
        "meta_norad_cat_id": 4507,
        "meta_element_set_no": 999,
        "meta_rev_at_epoch": 72073,
        "meta_bstar": 0.00022172,
        "meta_mean_motion_dot": 1.66e-06,
        "meta_mean_motion_ddot": 0,
        "tle_line1": "1 04507U 70067A   25335.74110221  .00000166  00000+0  22172-3 0  9991",
        "tle_line2": "2 04507  90.0056 234.5260 0171317 325.4641  33.5474 13.51310415720734"
      },
      "geometry": {
        "type": "Point",
        "coordinates": [
          54.525451637889724,
          -8.765781509710589
        ]
      }
    },
    {
      "type": "Feature",
      "properties": {
        "norad_id": 6909,
        "name": "NNSS 20 (TRANSIT 20)",
        "group": "nnss",
        "lat": -49.23141838851899,
        "lon": 75.37838352030357,
        "alt_km": 1057.5778980935702,
        "timestamp": "2025-12-02T07:10:09.383803+00:00",
        "meta_object_name": "NNSS 20 (TRANSIT 20)",
        "meta_object_id": "1973-081A",
        "meta_epoch": "2025-12-01T19:33:52.680384",
        "meta_mean_motion": 13.71426658,
        "meta_eccentricity": 0.0156418,
        "meta_inclination": 89.8555,
        "meta_ra_of_asc_node": 255.218,
        "meta_arg_of_pericenter": 110.6716,
        "meta_mean_anomaly": 251.1296,
        "meta_ephemeris_type": 0,
        "meta_classification_type": "U",
        "meta_norad_cat_id": 6909,
        "meta_element_set_no": 999,
        "meta_rev_at_epoch": 80211,
        "meta_bstar": 0.00022968,
        "meta_mean_motion_dot": 2.37e-06,
        "meta_mean_motion_ddot": 0,
        "tle_line1": "1 06909U 73081A   25335.81519306  .00000237  00000+0  22968-3 0  9995",
        "tle_line2": "2 06909  89.8555 255.2180 0156418 110.6716 251.1296 13.71426658802117"
      },
      "geometry": {
        "type": "Point",
        "coordinates": [
          75.37838352030357,
          -49.23141838851899
        ]
      }
    },
    {
      "type": "Feature",
      "properties": {
        "norad_id": 10457,
        "name": "TRANSAT",
        "group": "nnss",
        "lat": -75.78308820993331,
        "lon": 77.57702471208476,
        "alt_km": 1075.508858136497,
        "timestamp": "2025-12-02T07:10:09.383814+00:00",
        "meta_object_name": "TRANSAT",
        "meta_object_id": "1977-106A",
        "meta_epoch": "2025-12-01T17:52:00.130080",
        "meta_mean_motion": 13.48940794,
        "meta_eccentricity": 0.0024426,
        "meta_inclination": 89.6482,
        "meta_ra_of_asc_node": 78.9862,
        "meta_arg_of_pericenter": 222.0713,
        "meta_mean_anomaly": 251.8633,
        "meta_ephemeris_type": 0,
        "meta_classification_type": "U",
        "meta_norad_cat_id": 10457,
        "meta_element_set_no": 999,
        "meta_rev_at_epoch": 36595,
        "meta_bstar": 0.00010561,
        "meta_mean_motion_dot": 7.6e-07,
        "meta_mean_motion_ddot": 0,
        "tle_line1": "1 10457U 77106A   25335.74444595  .00000076  00000+0  10561-3 0  9996",
        "tle_line2": "2 10457  89.6482  78.9862 0024426 222.0713 251.8633 13.48940794365956"
      },
      "geometry": {
        "type": "Point",
        "coordinates": [
          77.57702471208476,
          -75.78308820993331
        ]
      }
    },
    {
      "type": "Feature",
      "properties": {
        "norad_id": 12458,
        "name": "NOVA 1",
        "group": "nnss",
        "lat": 68.6933257722757,
        "lon": 91.91215536980339,
        "alt_km": 1159.9221937463944,
        "timestamp": "2025-12-02T07:10:09.383825+00:00",
        "meta_object_name": "NOVA 1",
        "meta_object_id": "1981-044A",
        "meta_epoch": "2025-12-01T20:34:27.784992",
        "meta_mean_motion": 13.2327664,
        "meta_eccentricity": 0.0015538,
        "meta_inclination": 89.8521,
        "meta_ra_of_asc_node": 91.539,
        "meta_arg_of_pericenter": 130.8226,
        "meta_mean_anomaly": 356.2867,
        "meta_ephemeris_type": 0,
        "meta_classification_type": "U",
        "meta_norad_cat_id": 12458,
        "meta_element_set_no": 999,
        "meta_rev_at_epoch": 15042,
        "meta_bstar": 0.00010996,
        "meta_mean_motion_dot": 5.6e-07,
        "meta_mean_motion_ddot": 0,
        "tle_line1": "1 12458U 81044A   25335.85726603  .00000056  00000+0  10996-3 0  9990",
        "tle_line2": "2 12458  89.8521  91.5390 0015538 130.8226 356.2867 13.23276640150429"
      },
      "geometry": {
        "type": "Point",
        "coordinates": [
          91.91215536980339,
          68.6933257722757
        ]
      }
    }
  ]
}